[{"OBJECT_NAME":"STARLINK-4170","OBJECT_ID":"2022-083J","EPOCH":"2025-08-18T13:43:04.304640","MEAN_MOTION":15.08830813,"ECCENTRICITY":0.0001307,"INCLINATION":53.2187,"RA_OF_ASC_NODE":5.9536,"ARG_OF_PERICENTER":89.3983,"MEAN_ANOMALY":270.7159,"EPHEMERIS_TYPE":0,"CLASSIFICATION_TYPE":"U","NORAD_CAT_ID":53140,"ELEMENT_SET_NO":999,"REV_AT_EPOCH":17055,"BSTAR":7.3442e-5,"MEAN_MOTION_DOT":8.81e-6,"MEAN_MOTION_DDOT":0},{"OBJECT_NAME":"STARLINK-4103","OBJECT_ID":"2022-083K","EPOCH":"2025-08-18T13:16:34.271616","MEAN_MOTION":15.08833611,"ECCENTRICITY":0.0001576,"INCLINATION":53.2189,"RA_OF_ASC_NODE":6.0359,"ARG_OF_PERICENTER":77.7802,"MEAN_ANOMALY":282.3366,"EPHEMERIS_TYPE":0,"CLASSIFICATION_TYPE":"U","NORAD_CAT_ID":53141,"ELEMENT_SET_NO":999,"REV_AT_EPOCH":17055,"BSTAR":-3.7143e-6,"MEAN_MOTION_DOT":-3.47e-6,"MEAN_MOTION_DDOT":0},{"OBJECT_NAME":"STARLINK-4101","OBJECT_ID":"2022-083L","EPOCH":"2025-08-18T13:28:32.197728","MEAN_MOTION":15.08837473,"ECCENTRICITY":0.0001212,"INCLINATION":53.2191,"RA_OF_ASC_NODE":5.9698,"ARG_OF_PERICENTER":86.9075,"MEAN_ANOMALY":273.2056,"EPHEMERIS_TYPE":0,"CLASSIFICATION_TYPE":"U","NORAD_CAT_ID":53142,"ELEMENT_SET_NO":999,"REV_AT_EPOCH":17056,"BSTAR":1.9745e-5,"MEAN_MOTION_DOT":2.6e-7,"MEAN_MOTION_DDOT":0},{"OBJECT_NAME":"STARLINK-4102","OBJECT_ID":"2022-083M","EPOCH":"2025-08-18T13:11:16.286784","MEAN_MOTION":15.0883375,"ECCENTRICITY":0.0001797,"INCLINATION":53.22,"RA_OF_ASC_NODE":6.0541,"ARG_OF_PERICENTER":87.2418,"MEAN_ANOMALY":272.878,"EPHEMERIS_TYPE":0,"CLASSIFICATION_TYPE":"U","NORAD_CAT_ID":53143,"ELEMENT_SET_NO":999,"REV_AT_EPOCH":17118,"BSTAR":1.8916e-5,"MEAN_MOTION_DOT":1.3e-7,"MEAN_MOTION_DDOT":0},{"OBJECT_NAME":"STARLINK-4100","OBJECT_ID":"2022-083N","EPOCH":"2025-08-18T13:27:10.027008","MEAN_MOTION":15.0883771,"ECCENTRICITY":0.0001329,"INCLINATION":53.2191,"RA_OF_ASC_NODE":6.0094,"ARG_OF_PERICENTER":88.454,"MEAN_ANOMALY":271.6604,"EPHEMERIS_TYPE":0,"CLASSIFICATION_TYPE":"U","NORAD_CAT_ID":53144,"ELEMENT_SET_NO":999,"REV_AT_EPOCH":17055,"BSTAR":-2.4129e-5,"MEAN_MOTION_DOT":-6.72e-6,"MEAN_MOTION_DDOT":0},{"OBJECT_NAME":"STARLINK-4106","OBJECT_ID":"2022-083P","EPOCH":"2025-08-18T13:00:40.460544","MEAN_MOTION":15.08833279,"ECCENTRICITY":0.0001615,"INCLINATION":53.2209,"RA_OF_ASC_NODE":6.0868,"ARG_OF_PERICENTER":95.7821,"MEAN_ANOMALY":264.3355,"EPHEMERIS_TYPE":0,"CLASSIFICATION_TYPE":"U","NORAD_CAT_ID":53145,"ELEMENT_SET_NO":999,"REV_AT_EPOCH":17055,"BSTAR":-2.0916e-5,"MEAN_MOTION_DOT":-6.21e-6,"MEAN_MOTION_DDOT":0},{"OBJECT_NAME":"STARLINK-4094","OBJECT_ID":"2022-083R","EPOCH":"2025-08-18T12:55:21.999648","MEAN_MOTION":15.08843275,"ECCENTRICITY":0.0001801,"INCLINATION":53.2194,"RA_OF_ASC_NODE":6.1057,"ARG_OF_PERICENTER":88.8544,"MEAN_ANOMALY":271.2655,"EPHEMERIS_TYPE":0,"CLASSIFICATION_TYPE":"U","NORAD_CAT_ID":53147,"ELEMENT_SET_NO":999,"REV_AT_EPOCH":17120,"BSTAR":-9.4891e-5,"MEAN_MOTION_DOT":-1.798e-5,"MEAN_MOTION_DDOT":0},{"OBJECT_NAME":"STARLINK-4021","OBJECT_ID":"2022-083T","EPOCH":"2025-08-18T13:35:11.546304","MEAN_MOTION":15.08839767,"ECCENTRICITY":0.0001169,"INCLINATION":53.2192,"RA_OF_ASC_NODE":356.1832,"ARG_OF_PERICENTER":91.4686,"MEAN_ANOMALY":268.644,"EPHEMERIS_TYPE":0,"CLASSIFICATION_TYPE":"U","NORAD_CAT_ID":53149,"ELEMENT_SET_NO":999,"REV_AT_EPOCH":17069,"BSTAR":1.3943e-5,"MEAN_MOTION_DOT":-6.6e-7,"MEAN_MOTION_DDOT":0},{"OBJECT_NAME":"STARLINK-4038","OBJECT_ID":"2022-083U","EPOCH":"2025-08-18T14:05:35.049408","MEAN_MOTION":15.08832006,"ECCENTRICITY":0.0001288,"INCLINATION":53.2194,"RA_OF_ASC_NODE":355.8868,"ARG_OF_PERICENTER":94.7548,"MEAN_ANOMALY":265.3591,"EPHEMERIS_TYPE":0,"CLASSIFICATION_TYPE":"U","NORAD_CAT_ID":53150,"ELEMENT_SET_NO":999,"REV_AT_EPOCH":17069,"BSTAR":3.6022e-5,"MEAN_MOTION_DOT":2.85e-6,"MEAN_MOTION_DDOT":0},{"OBJECT_NAME":"STARLINK-4040","OBJECT_ID":"2022-083V","EPOCH":"2025-08-18T13:49:40.656000","MEAN_MOTION":15.08834857,"ECCENTRICITY":0.0001409,"INCLINATION":53.2194,"RA_OF_ASC_NODE":355.9347,"ARG_OF_PERICENTER":81.7915,"MEAN_ANOMALY":278.3237,"EPHEMERIS_TYPE":0,"CLASSIFICATION_TYPE":"U","NORAD_CAT_ID":53151,"ELEMENT_SET_NO":999,"REV_AT_EPOCH":17069,"BSTAR":6.5537e-5,"MEAN_MOTION_DOT":7.55e-6,"MEAN_MOTION_DDOT":0},{"OBJECT_NAME":"STARLINK-4045","OBJECT_ID":"2022-083W","EPOCH":"2025-08-18T14:00:16.927200","MEAN_MOTION":15.0883555,"ECCENTRICITY":0.0001302,"INCLINATION":53.2191,"RA_OF_ASC_NODE":355.9023,"ARG_OF_PERICENTER":93.0333,"MEAN_ANOMALY":267.0808,"EPHEMERIS_TYPE":0,"CLASSIFICATION_TYPE":"U","NORAD_CAT_ID":53152,"ELEMENT_SET_NO":999,"REV_AT_EPOCH":17069,"BSTAR":-2.9219e-6,"MEAN_MOTION_DOT":-3.34e-6,"MEAN_MOTION_DDOT":0},{"OBJECT_NAME":"STARLINK-4098","OBJECT_ID":"2022-083X","EPOCH":"2025-08-18T13:44:22.977888","MEAN_MOTION":15.08834907,"ECCENTRICITY":0.0001311,"INCLINATION":53.2189,"RA_OF_ASC_NODE":355.9516,"ARG_OF_PERICENTER":92.9392,"MEAN_ANOMALY":267.175,"EPHEMERIS_TYPE":0,"CLASSIFICATION_TYPE":"U","NORAD_CAT_ID":53153,"ELEMENT_SET_NO":999,"REV_AT_EPOCH":17069,"BSTAR":-1.6465e-5,"MEAN_MOTION_DOT":-5.5e-6,"MEAN_MOTION_DDOT":0},{"OBJECT_NAME":"STARLINK-4077","OBJECT_ID":"2022-083Y","EPOCH":"2025-08-18T13:54:59.479776","MEAN_MOTION":15.08831022,"ECCENTRICITY":0.000128,"INCLINATION":53.2205,"RA_OF_ASC_NODE":355.9243,"ARG_OF_PERICENTER":94.6642,"MEAN_ANOMALY":265.4496,"EPHEMERIS_TYPE":0,"CLASSIFICATION_TYPE":"U","NORAD_CAT_ID":53154,"ELEMENT_SET_NO":999,"REV_AT_EPOCH":17069,"BSTAR":-4.2346e-7,"MEAN_MOTION_DOT":-2.95e-6,"MEAN_MOTION_DDOT":0},{"OBJECT_NAME":"STARLINK-4088","OBJECT_ID":"2022-083Z","EPOCH":"2025-08-18T13:33:47.496384","MEAN_MOTION":15.08846379,"ECCENTRICITY":0.0001179,"INCLINATION":53.2186,"RA_OF_ASC_NODE":355.9832,"ARG_OF_PERICENTER":92.9832,"MEAN_ANOMALY":267.1295,"EPHEMERIS_TYPE":0,"CLASSIFICATION_TYPE":"U","NORAD_CAT_ID":53155,"ELEMENT_SET_NO":999,"REV_AT_EPOCH":17133,"BSTAR":7.4462e-5,"MEAN_MOTION_DOT":8.98e-6,"MEAN_MOTION_DDOT":0},{"OBJECT_NAME":"STARLINK-4087","OBJECT_ID":"2022-083AA","EPOCH":"2025-08-18T13:17:52.500768","MEAN_MOTION":15.08834676,"ECCENTRICITY":0.0001462,"INCLINATION":53.2186,"RA_OF_ASC_NODE":355.9093,"ARG_OF_PERICENTER":93.3037,"MEAN_ANOMALY":266.8123,"EPHEMERIS_TYPE":0,"CLASSIFICATION_TYPE":"U","NORAD_CAT_ID":53156,"ELEMENT_SET_NO":999,"REV_AT_EPOCH":17069,"BSTAR":8.6106e-6,"MEAN_MOTION_DOT":-1.51e-6,"MEAN_MOTION_DDOT":0},{"OBJECT_NAME":"STARLINK-4054","OBJECT_ID":"2022-083AC","EPOCH":"2025-08-18T13:39:04.862592","MEAN_MOTION":15.08838437,"ECCENTRICITY":0.0001368,"INCLINATION":53.2191,"RA_OF_ASC_NODE":355.9654,"ARG_OF_PERICENTER":96.1769,"MEAN_ANOMALY":263.9379,"EPHEMERIS_TYPE":0,"CLASSIFICATION_TYPE":"U","NORAD_CAT_ID":53158,"ELEMENT_SET_NO":999,"REV_AT_EPOCH":17069,"BSTAR":-7.1512e-6,"MEAN_MOTION_DOT":-4.02e-6,"MEAN_MOTION_DDOT":0},{"OBJECT_NAME":"STARLINK-4111","OBJECT_ID":"2022-083AD","EPOCH":"2025-08-18T13:12:35.214048","MEAN_MOTION":15.08841435,"ECCENTRICITY":0.0001332,"INCLINATION":53.2198,"RA_OF_ASC_NODE":356.0494,"ARG_OF_PERICENTER":87.6499,"MEAN_ANOMALY":272.4645,"EPHEMERIS_TYPE":0,"CLASSIFICATION_TYPE":"U","NORAD_CAT_ID":53159,"ELEMENT_SET_NO":999,"REV_AT_EPOCH":17069,"BSTAR":9.3774e-6,"MEAN_MOTION_DOT":-1.39e-6,"MEAN_MOTION_DDOT":0},{"OBJECT_NAME":"STARLINK-4096","OBJECT_ID":"2022-083AE","EPOCH":"2025-08-18T13:28:29.321472","MEAN_MOTION":15.08834491,"ECCENTRICITY":0.000145,"INCLINATION":53.2193,"RA_OF_ASC_NODE":356.0018,"ARG_OF_PERICENTER":95.2043,"MEAN_ANOMALY":264.9114,"EPHEMERIS_TYPE":0,"CLASSIFICATION_TYPE":"U","NORAD_CAT_ID":53160,"ELEMENT_SET_NO":999,"REV_AT_EPOCH":17069,"BSTAR":-8.9825e-6,"MEAN_MOTION_DOT":-4.31e-6,"MEAN_MOTION_DDOT":0},{"OBJECT_NAME":"STARLINK-4055","OBJECT_ID":"2022-083AF","EPOCH":"2025-08-18T14:32:04.639200","MEAN_MOTION":15.08838823,"ECCENTRICITY":0.0001151,"INCLINATION":53.2182,"RA_OF_ASC_NODE":355.8016,"ARG_OF_PERICENTER":87.0286,"MEAN_ANOMALY":273.0838,"EPHEMERIS_TYPE":0,"CLASSIFICATION_TYPE":"U","NORAD_CAT_ID":53161,"ELEMENT_SET_NO":999,"REV_AT_EPOCH":17070,"BSTAR":1.1141e-6,"MEAN_MOTION_DOT":-2.7e-6,"MEAN_MOTION_DDOT":0},{"OBJECT_NAME":"STARLINK-4114","OBJECT_ID":"2022-083AG","EPOCH":"2025-08-18T13:19:15.914784","MEAN_MOTION":15.08838883,"ECCENTRICITY":0.0001027,"INCLINATION":53.2189,"RA_OF_ASC_NODE":356.0387,"ARG_OF_PERICENTER":86.4091,"MEAN_ANOMALY":273.7018,"EPHEMERIS_TYPE":0,"CLASSIFICATION_TYPE":"U","NORAD_CAT_ID":53162,"ELEMENT_SET_NO":999,"REV_AT_EPOCH":17069,"BSTAR":3.215e-5,"MEAN_MOTION_DOT":2.24e-6,"MEAN_MOTION_DDOT":0},{"OBJECT_NAME":"STARLINK-4104","OBJECT_ID":"2022-083AH","EPOCH":"2025-08-18T14:42:42.062976","MEAN_MOTION":15.08839933,"ECCENTRICITY":0.0001149,"INCLINATION":53.2192,"RA_OF_ASC_NODE":355.9129,"ARG_OF_PERICENTER":85.1151,"MEAN_ANOMALY":274.9973,"EPHEMERIS_TYPE":0,"CLASSIFICATION_TYPE":"U","NORAD_CAT_ID":53163,"ELEMENT_SET_NO":999,"REV_AT_EPOCH":17070,"BSTAR":3.1741e-5,"MEAN_MOTION_DOT":2.17e-6,"MEAN_MOTION_DDOT":0},{"OBJECT_NAME":"STARLINK-4116","OBJECT_ID":"2022-083AJ","EPOCH":"2025-08-18T14:37:22.551456","MEAN_MOTION":15.08839656,"ECCENTRICITY":0.0001316,"INCLINATION":53.2191,"RA_OF_ASC_NODE":355.7861,"ARG_OF_PERICENTER":87.1424,"MEAN_ANOMALY":272.9718,"EPHEMERIS_TYPE":0,"CLASSIFICATION_TYPE":"U","NORAD_CAT_ID":53164,"ELEMENT_SET_NO":999,"REV_AT_EPOCH":17070,"BSTAR":-2.7257e-6,"MEAN_MOTION_DOT":-3.31e-6,"MEAN_MOTION_DDOT":0},{"OBJECT_NAME":"STARLINK-4090","OBJECT_ID":"2022-083AK","EPOCH":"2025-08-18T14:16:11.516736","MEAN_MOTION":15.08831114,"ECCENTRICITY":0.0001413,"INCLINATION":53.2196,"RA_OF_ASC_NODE":355.8522,"ARG_OF_PERICENTER":88.5,"MEAN_ANOMALY":271.6154,"EPHEMERIS_TYPE":0,"CLASSIFICATION_TYPE":"U","NORAD_CAT_ID":53165,"ELEMENT_SET_NO":999,"REV_AT_EPOCH":17070,"BSTAR":-1.4634e-5,"MEAN_MOTION_DOT":-5.21e-6,"MEAN_MOTION_DDOT":0}]
